SAUDISAT 5A             
1 43831U 18102A   26183.88049663  .00006206  00000+0  22800-3 0  9993
2 43831  97.3058 245.1599 0011200  81.6491 278.6018 15.28212214418071
SAUDISAT 5B             
1 43833U 18102C   26183.83127748  .00005944  00000+0  21682-3 0  9996
2 43833  97.3166 248.2097 0011928  83.5881 276.6717 15.28460124418182
GAOFEN-10R              
1 44622U 19066A   26183.87436443  .00001312  00000+0  16799-3 0  9990
2 44622  98.0503 137.5679 0007193  84.7221 275.4812 14.83035158364704
CARTOSAT-3              
1 44804U 19081A   26183.89874752  .00003989  00000+0  19207-3 0  9999
2 44804  97.4296 245.5127 0013417  98.8723 261.4031 15.19249982365852
GAOFEN-12 01            
1 44819U 19082A   26183.89522368  .00000453  00000+0  65825-4 0  9990
2 44819  97.8103 189.8601 0001627  54.7951 305.3413 14.80471627356414
CSG-1                   
1 44873U 19092A   26183.84879359  .00000483  00000+0  67204-4 0  9997
2 44873  97.8891   7.2246 0001419  91.1611 268.9765 14.82157870353798
NEMO-HD                 
1 46277U 20061F   26183.87085302  .00011728  00000+0  25123-3 0  9992
2 46277  97.1909 245.6678 0001462  73.2434 286.8975 15.44915490324407
SENTINEL-6A             
1 46984U 20086A   26183.85682286 -.00000046  00000+0  67278-4 0  9996
2 46984  66.0413 102.5074 0007834 269.9913  90.0205 12.80929977262339
CAS500-1                
1 47932U 21022A   26183.86093144  .00007231  00000+0  33728-3 0  9995
2 47932  97.3881  78.7959 0003608 220.7257 139.3709 15.20150741293147
GAOFEN-12 02            
1 48079U 21026A   26183.84037657  .00000412  00000+0  61031-4 0  9990
2 48079  97.9926 181.9572 0004925 166.6611 193.4732 14.80308395284073
PLEIADES NEO 3          
1 48268U 21034A   26183.85314965  .00000034  00000+0  10903-4 0  9992
2 48268  97.8941 258.3942 0001395  90.0306 270.1066 14.81673588279974
PLEIADES NEO 4          
1 49070U 21073E   26183.81937279  .00000110  00000+0  20541-4 0  9996
2 49070  97.8936 258.3570 0001301  88.1421 271.9941 14.81665200263684
LANDSAT 9               
1 49260U 21088A   26183.64726542  .00000415  00000+0  10221-3 0  9994
2 49260  98.2275 253.6373 0001187  87.7642 272.3692 14.57108136253250
CSG-2                   
1 51444U 22008A   26183.81503137  .00001129  00000+0  14834-3 0  9993
2 51444  97.8883   7.1857 0001602  86.0247 274.1149 14.82158093238908
GAOFEN-12 03            
1 52912U 22069A   26183.80542137  .00001069  00000+0  14786-3 0  9992
2 52912  97.8262  71.2813 0002475  85.5730 274.5765 14.80060023216923
SWOT                    
1 54754U 22173A   26183.85109699  .00000106  00000+0  73878-4 0  9990
2 54754  77.6102  14.1633 0000321  86.6096 273.5092 14.00171427181341
GAOFEN-12 04            
1 57654U 23123A   26183.89023818  .00001123  00000+0  15624-3 0  9994
2 57654  97.9112 101.6766 0003929  75.0071 285.1575 14.79756579154955
PARS 1                  
1 59065U 24039Q   26183.91449787  .00012151  00000+0  24988-3 0  9995
2 59065  97.4833 165.3332 0011065  65.3359 294.9041 15.46059919131078
RESURS-P 4              
1 59371U 24061A   26183.87203546  .00003339  00000+0  10981-3 0  9992
2 59371  97.2759 131.4986 0003046 107.5125 252.6450 15.32220803126168
LEGION 1                
1 59625U 24081A   26183.79681513  .00004273  00000+0  22093-3 0  9996
2 59625  97.5014 261.4878 0008077 320.9958  39.0692 15.16774417119901
LEGION 2                
1 59626U 24081B   26183.82702063  .00005054  00000+0  26073-3 0  9995
2 59626  97.5014 261.6149 0009859 282.7640  77.2491 15.16752900119912
ALOS-4 (DAICHI-4)       
1 60182U 24123A   26183.84934411  .00001648  00000+0  22752-3 0  9992
2 60182  97.9220 280.8006 0001611  97.4056 262.7339 14.79475621108199
LEGION 3                
1 60452U 24146A   26183.81351492  .00005488  00000+0  29748-3 0  9994
2 60452  45.0023 306.7512 0008832 270.5308  89.4558 15.15587211104395
LEGION 4                
1 60453U 24146B   26183.81602346  .00005270  00000+0  28151-3 0  9998
2 60453  45.0024  38.6394 0011888  35.3490 324.8175 15.16159778103248
SENTINEL-2C             
1 60989U 24157A   26183.83686620  .00000132  00000+0  67057-4 0  9994
2 60989  98.5686 258.3973 0000945  92.0582 268.0709 14.30812725 95220
IONOSFERA-M 1           
1 61735U 24199A   26183.87645905  .00000084  00000+0  57243-4 0  9997
2 61735  98.7152  56.8816 0002213  89.5438 270.5993 14.22757310129936
IONOSFERA-M 2           
1 61736U 24199B   26183.84039079  .00000088  00000+0  59080-4 0  9999
2 61736  98.7151  56.7564 0000404  53.0468 307.0747 14.22760663133050
PRSC-EO1                
1 62725U 25012A   26183.88367605  .00008256  00000+0  41320-3 0  9998
2 62725  97.4219 256.0366 0005784 188.5235 171.5901 15.17646110 80576
BIOMASS                 
1 63772U 25090A   26183.85437450  .00001259  00000+0  23138-3 0  9993
2 63772  98.0748  10.9387 0001471  85.9487 274.1886 14.67360834 62988
GOSAT-GW (IBUKI GW)     
1 64694U 25141A   26183.87188579  .00000038  00000+0  15048-4 0  9997
2 64694  98.0568 120.9340 0001432  85.7051 274.4317 14.67554342 54145
IONOSFERA-M 3           
1 64876U 25155A   26183.87210800  .00000076  00000+0  54175-4 0  9993
2 64876  98.6033 145.3828 0001840 130.8977 229.2360 14.21489209 48636
